{"type": "FeatureCollection", "features": [ {"type": "Feature", "properties": {"norad_id": 31093, "name": "FENGYUN 1C DEB", "group": "fengyun-1c-debris", "lat": 78.85710331122414, "lon": 130.98333552289074, "alt_km": 1091.0490645516265, "timestamp": "2025-12-07T16:44:04.191790+00:00", "meta": {"OBJECT_NAME": "FENGYUN 1C DEB", "OBJECT_ID": "1999-025BGP", "EPOCH": "2025-12-05T19:05:51.065952", "MEAN_MOTION": 13.80620951, "ECCENTRICITY": 0.02081596, "INCLINATION": 98.5954, "RA_OF_ASC_NODE": 179.4149, "ARG_OF_PERICENTER": 242.0633, "MEAN_ANOMALY": 115.9311, "EPHEMERIS_TYPE": 0, "CLASSIFICATION_TYPE": "U", "NORAD_CAT_ID": 31093, "ELEMENT_SET_NO": 999, "REV_AT_EPOCH": 94411, "BSTAR": 0.00075404882, "MEAN_MOTION_DOT": 8.92e-06, "MEAN_MOTION_DDOT": 0}, "tle": {"line1": "1 31093U 99025BGP 25339.79572993  .00000892  00000+0  75405-3 0  9996", "line2": "2 31093  98.5954 179.4149 0208159 242.0633 115.9311 13.80620951944113"}}, "geometry": {"type": "Point", "coordinates": [130.98333552289074, 78.85710331122414]}}, {"type": "Feature", "properties": {"norad_id": 31094, "name": "FENGYUN 1C DEB", "group": "fengyun-1c-debris", "lat": -1.5295267991565136, "lon": 29.455807469567677, "alt_km": 928.5794536363774, "timestamp": "2025-12-07T16:44:04.191803+00:00", "meta": {"OBJECT_NAME": "FENGYUN 1C DEB", "OBJECT_ID": "1999-025BGQ", "EPOCH": "2025-12-06T21:02:29.394240", "MEAN_MOTION": 14.02005214, "ECCENTRICITY": 0.01064109, "INCLINATION": 98.8559, "RA_OF_ASC_NODE": 208.8973, "ARG_OF_PERICENTER": 63.1914, "MEAN_ANOMALY": 298.0088, "EPHEMERIS_TYPE": 0, "CLASSIFICATION_TYPE": "U", "NORAD_CAT_ID": 31094, "ELEMENT_SET_NO": 999, "REV_AT_EPOCH": 95537, "BSTAR": 0.0021466403, "MEAN_MOTION_DOT": 3.399e-05, "MEAN_MOTION_DDOT": 0}, "tle": {"line1": "1 31094U 99025BGQ 25340.87672910  .00003399  00000+0  21466-2 0  9990", "line2": "2 31094  98.8559 208.8973 0106410  63.1914 298.0088 14.02005214955379"}}, "geometry": {"type": "Point", "coordinates": [29.455807469567677, -1.5295267991565136]}}, {"type": "Feature", "properties": {"norad_id": 31095, "name": "FENGYUN 1C DEB", "group": "fengyun-1c-debris", "lat": -21.23050860745344, "lon": -58.21038927413248, "alt_km": 860.9397460079472, "timestamp": "2025-12-07T16:44:04.191813+00:00", "meta": {"OBJECT_NAME": "FENGYUN 1C DEB", "OBJECT_ID": "1999-025BGR", "EPOCH": "2025-12-03T05:06:12.521952", "MEAN_MOTION": 13.06661132, "ECCENTRICITY": 0.0499779, "INCLINATION": 98.5614, "RA_OF_ASC_NODE": 121.5529, "ARG_OF_PERICENTER": 214.6633, "MEAN_ANOMALY": 142.0948, "EPHEMERIS_TYPE": 0, "CLASSIFICATION_TYPE": "U", "NORAD_CAT_ID": 31095, "ELEMENT_SET_NO": 999, "REV_AT_EPOCH": 89323, "BSTAR": 0.00017519, "MEAN_MOTION_DOT": 7.3e-07, "MEAN_MOTION_DDOT": 0}, "tle": {"line1": "1 31095U 99025BGR 25337.21264493  .00000073  00000+0  17519-3 0  9999", "line2": "2 31095  98.5614 121.5529 0499779 214.6633 142.0948 13.06661132893230"}}, "geometry": {"type": "Point", "coordinates": [-58.21038927413248, -21.23050860745344]}}, {"type": "Feature", "properties": {"norad_id": 31097, "name": "FENGYUN 1C DEB", "group": "fengyun-1c-debris", "lat": 50.053153886043425, "lon": -65.02522159431109, "alt_km": 740.7598752560561, "timestamp": "2025-12-07T16:44:04.191823+00:00", "meta": {"OBJECT_NAME": "FENGYUN 1C DEB", "OBJECT_ID": "1999-025BGT", "EPOCH": "2025-12-04T14:03:11.455200", "MEAN_MOTION": 14.46732949, "ECCENTRICITY": 0.0014656, "INCLINATION": 98.8601, "RA_OF_ASC_NODE": 100.9877, "ARG_OF_PERICENTER": 294.417, "MEAN_ANOMALY": 196.5748, "EPHEMERIS_TYPE": 0, "CLASSIFICATION_TYPE": "U", "NORAD_CAT_ID": 31097, "ELEMENT_SET_NO": 999, "REV_AT_EPOCH": 96920, "BSTAR": 0.0067438, "MEAN_MOTION_DOT": 0.00024464, "MEAN_MOTION_DDOT": 0}, "tle": {"line1": "1 31097U 99025BGT 25338.58554925  .00024464  00000+0  67438-2 0  9998", "line2": "2 31097  98.8601 100.9877 0014656 294.4170 196.5748 14.46732949969200"}}, "geometry": {"type": "Point", "coordinates": [-65.02522159431109, 50.053153886043425]}}, {"type": "Feature", "properties": {"norad_id": 31098, "name": "FENGYUN 1C DEB", "group": "fengyun-1c-debris", "lat": -79.82718804701653, "lon": 159.8568031157069, "alt_km": 718.6826886655672, "timestamp": "2025-12-07T16:44:04.191833+00:00", "meta": {"OBJECT_NAME": "FENGYUN 1C DEB", "OBJECT_ID": "1999-025BGU", "EPOCH": "2025-12-06T21:16:10.214112", "MEAN_MOTION": 14.51292973, "ECCENTRICITY": 0.00143386, "INCLINATION": 98.8695, "RA_OF_ASC_NODE": 98.5164, "ARG_OF_PERICENTER": 265.3658, "MEAN_ANOMALY": 94.5898, "EPHEMERIS_TYPE": 0, "CLASSIFICATION_TYPE": "U", "NORAD_CAT_ID": 31098, "ELEMENT_SET_NO": 999, "REV_AT_EPOCH": 96872, "BSTAR": 0.0051123261, "MEAN_MOTION_DOT": 0.00020383, "MEAN_MOTION_DDOT": 0}, "tle": {"line1": "1 31098U 99025BGU 25340.88622933  .00020383  00000+0  51123-2 0  9990", "line2": "2 31098  98.8695  98.5164 0014338 265.3658  94.5898 14.51292973968723"}}, "geometry": {"type": "Point", "coordinates": [159.8568031157069, -79.82718804701653]}}, {"type": "Feature", "properties": {"norad_id": 31099, "name": "FENGYUN 1C DEB", "group": "fengyun-1c-debris", "lat": 12.776333311091085, "lon": 56.1024553164429, "alt_km": 828.3434967611738, "timestamp": "2025-12-07T16:44:04.191843+00:00", "meta": {"OBJECT_NAME": "FENGYUN 1C DEB", "OBJECT_ID": "1999-025BGV", "EPOCH": "2025-12-04T15:47:08.824128", "MEAN_MOTION": 14.27901878, "ECCENTRICITY": 0.0062914, "INCLINATION": 98.9375, "RA_OF_ASC_NODE": 230.9486, "ARG_OF_PERICENTER": 305.1809, "MEAN_ANOMALY": 86.5484, "EPHEMERIS_TYPE": 0, "CLASSIFICATION_TYPE": "U", "NORAD_CAT_ID": 31099, "ELEMENT_SET_NO": 999, "REV_AT_EPOCH": 97356, "BSTAR": 0.00059391, "MEAN_MOTION_DOT": 1.455e-05, "MEAN_MOTION_DDOT": 0}, "tle": {"line1": "1 31099U 99025BGV 25338.65774102  .00001455  00000+0  59391-3 0  9994", "line2": "2 31099  98.9375 230.9486 0062914 305.1809  86.5484 14.27901878973567"}}, "geometry": {"type": "Point", "coordinates": [56.1024553164429, 12.776333311091085]}}, {"type": "Feature", "properties": {"norad_id": 31146, "name": "FENGYUN 1C DEB", "group": "fengyun-1c-debris", "lat": 29.36317338812728, "lon": -92.85475849631418, "alt_km": 931.4589950354994, "timestamp": "2025-12-07T16:44:04.191854+00:00", "meta": {"OBJECT_NAME": "FENGYUN 1C DEB", "OBJECT_ID": "1999-025BGY", "EPOCH": "2025-12-03T06:37:17.170752", "MEAN_MOTION": 14.27671465, "ECCENTRICITY": 0.0212195, "INCLINATION": 99.0403, "RA_OF_ASC_NODE": 267.7085, "ARG_OF_PERICENTER": 194.417, "MEAN_ANOMALY": 165.0896, "EPHEMERIS_TYPE": 0, "CLASSIFICATION_TYPE": "U", "NORAD_CAT_ID": 31146, "ELEMENT_SET_NO": 999, "REV_AT_EPOCH": 96630, "BSTAR": 0.00053234, "MEAN_MOTION_DOT": 1.615e-05, "MEAN_MOTION_DDOT": 0}, "tle": {"line1": "1 31146U 99025BGY 25337.27589318  .00001615  00000+0  53234-3 0  9995", "line2": "2 31146  99.0403 267.7085 0212195 194.4170 165.0896 14.27671465966305"}}, "geometry": {"type": "Point", "coordinates": [-92.85475849631418, 29.36317338812728]}}, {"type": "Feature", "properties": {"norad_id": 31148, "name": "FENGYUN 1C DEB", "group": "fengyun-1c-debris", "lat": -79.61330014476933, "lon": -74.56490592081373, "alt_km": 838.9441310054353, "timestamp": "2025-12-07T16:44:04.191864+00:00", "meta": {"OBJECT_NAME": "FENGYUN 1C DEB", "OBJECT_ID": "1999-025BHA", "EPOCH": "2025-12-06T09:31:00.381216", "MEAN_MOTION": 14.43301197, "ECCENTRICITY": 0.01366263, "INCLINATION": 98.8655, "RA_OF_ASC_NODE": 225.7031, "ARG_OF_PERICENTER": 69.4001, "MEAN_ANOMALY": 292.1782, "EPHEMERIS_TYPE": 0, "CLASSIFICATION_TYPE": "U", "NORAD_CAT_ID": 31148, "ELEMENT_SET_NO": 999, "REV_AT_EPOCH": 97439, "BSTAR": 0.0014773343, "MEAN_MOTION_DOT": 5.525e-05, "MEAN_MOTION_DDOT": 0}, "tle": {"line1": "1 31148U 99025BHA 25340.39653219  .00005525  00000+0  14773-2 0  9994", "line2": "2 31148  98.8655 225.7031 0136626  69.4001 292.1782 14.43301197974390"}}, "geometry": {"type": "Point", "coordinates": [-74.56490592081373, -79.61330014476933]}}, {"type": "Feature", "properties": {"norad_id": 31150, "name": "FENGYUN 1C DEB", "group": "fengyun-1c-debris", "lat": -42.90332051799881, "lon": 162.3381624004642, "alt_km": 849.6547344076944, "timestamp": "2025-12-07T16:44:04.191874+00:00", "meta": {"OBJECT_NAME": "FENGYUN 1C DEB", "OBJECT_ID": "1999-025BHC", "EPOCH": "2025-12-06T18:24:41.879232", "MEAN_MOTION": 14.12728007, "ECCENTRICITY": 0.00149554, "INCLINATION": 98.6859, "RA_OF_ASC_NODE": 349.6038, "ARG_OF_PERICENTER": 176.2531, "MEAN_ANOMALY": 359.2772, "EPHEMERIS_TYPE": 0, "CLASSIFICATION_TYPE": "U", "NORAD_CAT_ID": 31150, "ELEMENT_SET_NO": 999, "REV_AT_EPOCH": 96212, "BSTAR": 0.00027244141, "MEAN_MOTION_DOT": 4.63e-06, "MEAN_MOTION_DDOT": 0}, "tle": {"line1": "1 31150U 99025BHC 25340.76715138  .00000463  00000+0  27244-3 0  9991", "line2": "2 31150  98.6859 349.6038 0014955 176.2531 359.2772 14.12728007962126"}}, "geometry": {"type": "Point", "coordinates": [162.3381624004642, -42.90332051799881]}}, {"type": "Feature", "properties": {"norad_id": 31151, "name": "FENGYUN 1C DEB", "group": "fengyun-1c-debris", "lat": 31.17152431099355, "lon": 172.50726447891606, "alt_km": 817.2168498461042, "timestamp": "2025-12-07T16:44:04.191886+00:00", "meta": {"OBJECT_NAME": "FENGYUN 1C DEB", "OBJECT_ID": "1999-025BHD", "EPOCH": "2025-12-06T11:24:46.806336", "MEAN_MOTION": 14.25703882, "ECCENTRICITY": 0.00567481, "INCLINATION": 99.135, "RA_OF_ASC_NODE": 345.649, "ARG_OF_PERICENTER": 42.9593, "MEAN_ANOMALY": 317.5996, "EPHEMERIS_TYPE": 0, "CLASSIFICATION_TYPE": "U", "NORAD_CAT_ID": 31151, "ELEMENT_SET_NO": 999, "REV_AT_EPOCH": 95885, "BSTAR": 0.0040904235, "MEAN_MOTION_DOT": 9.836e-05, "MEAN_MOTION_DDOT": 0}, "tle": {"line1": "1 31151U 99025BHD 25340.47554174  .00009836  00000+0  40904-2 0  9991", "line2": "2 31151  99.1350 345.6490 0056748  42.9593 317.5996 14.25703882958858"}}, "geometry": {"type": "Point", "coordinates": [172.50726447891606, 31.17152431099355]}}]}